SENTINEL-6A             
1 46984U 20086A   26059.24765951 -.00000060  00000+0  56638-5 0  9997
2 46984  66.0442   1.3213 0007819 270.7851  89.2269 12.80929512246377
